[{"OBJECT_NAME":"STARLINK-4810","OBJECT_ID":"2022-114BD","EPOCH":"2026-03-09T22:25:03.479520","MEAN_MOTION":15.08860246,"ECCENTRICITY":0.00012576,"INCLINATION":53.2176,"RA_OF_ASC_NODE":272.6922,"ARG_OF_PERICENTER":107.6981,"MEAN_ANOMALY":252.4148,"EPHEMERIS_TYPE":0,"CLASSIFICATION_TYPE":"U","NORAD_CAT_ID":53869,"ELEMENT_SET_NO":999,"REV_AT_EPOCH":19329,"BSTAR":-0.00021048966,"MEAN_MOTION_DOT":-3.638e-5,"MEAN_MOTION_DDOT":0},{"OBJECT_NAME":"LEMUR-2-NEUROSPICY","OBJECT_ID":"2025-061E","EPOCH":"2026-03-09T21:29:47.005152","MEAN_MOTION":15.13370729,"ECCENTRICITY":0.00155025,"INCLINATION":97.5545,"RA_OF_ASC_NODE":45.3302,"ARG_OF_PERICENTER":239.5457,"MEAN_ANOMALY":120.4243,"EPHEMERIS_TYPE":0,"CLASSIFICATION_TYPE":"U","NORAD_CAT_ID":63355,"ELEMENT_SET_NO":999,"REV_AT_EPOCH":5259,"BSTAR":0.00032487858,"MEAN_MOTION_DOT":5.745e-5,"MEAN_MOTION_DDOT":0}]
